start=new Date('2023-06-07T00:00:00.000Z').valueOf();
sats=[{"RA_OF_ASC_NODE":"282.3258","RCS_SIZE":"LARGE","MEAN_ANOMALY":"331.5748","NORAD_CAT_ID":"56294","TLE_LINE2":"2 56294  43.0017 282.3258 0001281 271.1479 331.5748 15.21671483  1309","ARG_OF_PERICENTER":"271.1479","APOAPSIS":"501.682","OBJECT_ID":"2023-056J","EPOCH":"2023-06-06T22:00:00.999936","DECAY_DATE":null,"CENTER_NAME":"EARTH","BSTAR":"-0.03620700000000","SITE":"AFETR","ECCENTRICITY":"0.00012810","PERIOD":"94.633","TLE_LINE1":"1 56294U 23056J   23157.91667824 -.00773953  00000-0 -36207-1 0  9998","MEAN_MOTION_DDOT":"0.0000000000000","TIME_SYSTEM":"UTC","LAUNCH_DATE":"2023-04-19","CLASSIFICATION_TYPE":"U","MEAN_ELEMENT_THEORY":"SGP4","REF_FRAME":"TEME","INCLINATION":"43.0017","REV_AT_EPOCH":"130","EPHEMERIS_TYPE":"0","OBJECT_TYPE":"PAYLOAD","MEAN_MOTION":"15.21671483","COUNTRY_CODE":"US","MEAN_MOTION_DOT":"-0.00773953","GP_ID":"233361173","FILE":"3926571","ELEMENT_SET_NO":"999","PERIAPSIS":"499.919","OBJECT_NAME":"STARLINK-30049","SEMIMAJOR_AXIS":"6878.936"},{"MEAN_MOTION":"15.69241723","OBJECT_TYPE":"PAYLOAD","MEAN_MOTION_DOT":"0.00297032","COUNTRY_CODE":"US","GP_ID":"233361424","SEMIMAJOR_AXIS":"6739.204","OBJECT_NAME":"STARLINK-30083","ELEMENT_SET_NO":"999","FILE":"3926571","PERIAPSIS":"358.778","MEAN_ELEMENT_THEORY":"SGP4","REF_FRAME":"TEME","REV_AT_EPOCH":"130","EPHEMERIS_TYPE":"0","INCLINATION":"42.9971","CENTER_NAME":"EARTH","DECAY_DATE":null,"EPOCH":"2023-06-06T22:00:00.999936","BSTAR":"0.00239010000000","SITE":"AFETR","ECCENTRICITY":"0.00034000","TLE_LINE1":"1 56295U 23056K   23157.91667824  .00297032  00000-0  23901-2 0  9994","MEAN_MOTION_DDOT":"0.0000000000000","TIME_SYSTEM":"UTC","PERIOD":"91.764","CLASSIFICATION_TYPE":"U","LAUNCH_DATE":"2023-04-19","RA_OF_ASC_NODE":"268.4934","MEAN_ANOMALY":"179.4071","RCS_SIZE":"LARGE","TLE_LINE2":"2 56295  42.9971 268.4934 0003400 301.0471 179.4071 15.69241723  1303","NORAD_CAT_ID":"56295","OBJECT_ID":"2023-056K","ARG_OF_PERICENTER":"301.0471","APOAPSIS":"363.360"},{"ELEMENT_SET_NO":"999","FILE":"3926571","PERIAPSIS":"340.588","OBJECT_NAME":"STARLINK-30089","SEMIMAJOR_AXIS":"6719.879","GP_ID":"233360172","MEAN_MOTION_DOT":"-0.00936244","COUNTRY_CODE":"US","OBJECT_TYPE":"PAYLOAD","MEAN_MOTION":"15.76015929","INCLINATION":"42.9950","REV_AT_EPOCH":"130","EPHEMERIS_TYPE":"0","REF_FRAME":"TEME","MEAN_ELEMENT_THEORY":"SGP4","LAUNCH_DATE":"2023-04-19","CLASSIFICATION_TYPE":"U","PERIOD":"91.370","TLE_LINE1":"1 56296U 23056L   23157.91667824 -.00936244  00000-0 -65154-2 0  9998","MEAN_MOTION_DDOT":"0.0000000000000","TIME_SYSTEM":"UTC","SITE":"AFETR","ECCENTRICITY":"0.00017200","BSTAR":"-0.00651540000000","DECAY_DATE":null,"EPOCH":"2023-06-06T22:00:00.999936","CENTER_NAME":"EARTH","ARG_OF_PERICENTER":"280.9912","APOAPSIS":"342.900","OBJECT_ID":"2023-056L","TLE_LINE2":"2 56296  42.9950 266.8645 0001720 280.9912 129.4434 15.76015929  1303","NORAD_CAT_ID":"56296","RCS_SIZE":"LARGE","MEAN_ANOMALY":"129.4434","RA_OF_ASC_NODE":"266.8645"},{"SEMIMAJOR_AXIS":"6874.928","OBJECT_NAME":"STARLINK-30086","PERIAPSIS":"495.845","FILE":"3926571","ELEMENT_SET_NO":"999","GP_ID":"233360422","MEAN_MOTION_DOT":"-0.00786938","COUNTRY_CODE":"US","MEAN_MOTION":"15.23002090","OBJECT_TYPE":"PAYLOAD","EPHEMERIS_TYPE":"0","REV_AT_EPOCH":"130","INCLINATION":"43.0001","REF_FRAME":"TEME","MEAN_ELEMENT_THEORY":"SGP4","CLASSIFICATION_TYPE":"U","LAUNCH_DATE":"2023-04-19","TIME_SYSTEM":"UTC","TLE_LINE1":"1 56297U 23056M   23157.91667824 -.00786938  00000-0 -35431-1 0  9996","MEAN_MOTION_DDOT":"0.0000000000000","PERIOD":"94.550","BSTAR":"-0.03543100000000","SITE":"AFETR","ECCENTRICITY":"0.00013800","CENTER_NAME":"EARTH","DECAY_DATE":null,"EPOCH":"2023-06-06T22:00:00.999936","OBJECT_ID":"2023-056M","APOAPSIS":"497.742","ARG_OF_PERICENTER":"271.6335","TLE_LINE2":"2 56297  43.0001 282.1769 0001380 271.6335  32.3786 15.23002090  1308","NORAD_CAT_ID":"56297","MEAN_ANOMALY":"32.3786","RCS_SIZE":"LARGE","RA_OF_ASC_NODE":"282.1769"},{"RA_OF_ASC_NODE":"282.2668","MEAN_ANOMALY":"349.7277","RCS_SIZE":"LARGE","TLE_LINE2":"2 56298  43.0009 282.2668 0001334 277.1904 349.7277 15.21914609  1304","NORAD_CAT_ID":"56298","OBJECT_ID":"2023-056N","APOAPSIS":"500.985","ARG_OF_PERICENTER":"277.1904","CENTER_NAME":"EARTH","DECAY_DATE":null,"EPOCH":"2023-06-06T22:00:00.999936","SITE":"AFETR","BSTAR":"-0.03603900000000","ECCENTRICITY":"0.00013340","TIME_SYSTEM":"UTC","TLE_LINE1":"1 56298U 23056N   23157.91667824 -.00775799  00000-0 -36039-1 0  9995","MEAN_MOTION_DDOT":"0.0000000000000","PERIOD":"94.618","CLASSIFICATION_TYPE":"U","LAUNCH_DATE":"2023-04-19","MEAN_ELEMENT_THEORY":"SGP4","REF_FRAME":"TEME","EPHEMERIS_TYPE":"0","REV_AT_EPOCH":"130","INCLINATION":"43.0009","MEAN_MOTION":"15.21914609","OBJECT_TYPE":"PAYLOAD","MEAN_MOTION_DOT":"-0.00775799","COUNTRY_CODE":"US","GP_ID":"233361673","OBJECT_NAME":"STARLINK-30109","SEMIMAJOR_AXIS":"6878.203","PERIAPSIS":"499.150","ELEMENT_SET_NO":"999","FILE":"3926571"},{"TLE_LINE2":"2 56299  43.0009 274.0374 0001500 280.9079 122.1685 15.34902123  1306","NORAD_CAT_ID":"56299","APOAPSIS":"462.239","ARG_OF_PERICENTER":"280.9079","OBJECT_ID":"2023-056P","RA_OF_ASC_NODE":"274.0374","RCS_SIZE":"LARGE","MEAN_ANOMALY":"122.1685","PERIOD":"93.817","TIME_SYSTEM":"UTC","TLE_LINE1":"1 56299U 23056P   23157.91667824 -.01036959  00000-0 -32593-1 0  9996","MEAN_MOTION_DDOT":"0.0000000000000","LAUNCH_DATE":"2023-04-19","CLASSIFICATION_TYPE":"U","EPOCH":"2023-06-06T22:00:00.999936","DECAY_DATE":null,"CENTER_NAME":"EARTH","BSTAR":"-0.03259300000000","SITE":"AFETR","ECCENTRICITY":"0.00015000","INCLINATION":"43.0009","EPHEMERIS_TYPE":"0","REV_AT_EPOCH":"130","MEAN_ELEMENT_THEORY":"SGP4","REF_FRAME":"TEME","GP_ID":"233361924","PERIAPSIS":"460.187","ELEMENT_SET_NO":"999","FILE":"3926571","OBJECT_NAME":"STARLINK-30108","SEMIMAJOR_AXIS":"6839.348","OBJECT_TYPE":"PAYLOAD","MEAN_MOTION":"15.34902123","COUNTRY_CODE":"US","MEAN_MOTION_DOT":"-0.01036959"},{"RA_OF_ASC_NODE":"286.5293","MEAN_ANOMALY":"96.0458","RCS_SIZE":"LARGE","NORAD_CAT_ID":"56300","TLE_LINE2":"2 56300  43.0004 286.5293 0001540 264.0213  96.0458 15.14322530  8567","OBJECT_ID":"2023-056Q","APOAPSIS":"524.101","ARG_OF_PERICENTER":"264.0213","CENTER_NAME":"EARTH","DECAY_DATE":null,"EPOCH":"2023-06-06T19:48:04.130784","ECCENTRICITY":"0.00015400","SITE":"AFETR","BSTAR":"0.00208060000000","TIME_SYSTEM":"UTC","TLE_LINE1":"1 56300U 23056Q   23157.82504781  .00038785  00000-0  20806-2 0  9992","MEAN_MOTION_DDOT":"0.0000000000000","PERIOD":"95.092","CLASSIFICATION_TYPE":"U","LAUNCH_DATE":"2023-04-19","MEAN_ELEMENT_THEORY":"SGP4","REF_FRAME":"TEME","EPHEMERIS_TYPE":"0","REV_AT_EPOCH":"856","INCLINATION":"43.0004","MEAN_MOTION":"15.14322530","OBJECT_TYPE":"PAYLOAD","COUNTRY_CODE":"US","MEAN_MOTION_DOT":"0.00038785","GP_ID":"233360672","SEMIMAJOR_AXIS":"6901.173","OBJECT_NAME":"STARLINK-30104","PERIAPSIS":"521.975","FILE":"3926571","ELEMENT_SET_NO":"999"},{"RA_OF_ASC_NODE":"285.6256","RCS_SIZE":"LARGE","MEAN_ANOMALY":"70.1997","NORAD_CAT_ID":"56301","TLE_LINE2":"2 56301  42.9992 285.6256 0001491 289.8689  70.1997 15.14315892  8573","ARG_OF_PERICENTER":"289.8689","APOAPSIS":"524.087","OBJECT_ID":"2023-056R","DECAY_DATE":null,"EPOCH":"2023-06-06T19:38:41.065440","CENTER_NAME":"EARTH","SITE":"AFETR","BSTAR":"0.00075209000000","ECCENTRICITY":"0.00014910","PERIOD":"95.092","TLE_LINE1":"1 56301U 23056R   23157.81853085  .00013822  00000-0  75209-3 0  9999","MEAN_MOTION_DDOT":"0.0000000000000","TIME_SYSTEM":"UTC","LAUNCH_DATE":"2023-04-19","CLASSIFICATION_TYPE":"U","MEAN_ELEMENT_THEORY":"SGP4","REF_FRAME":"TEME","INCLINATION":"42.9992","REV_AT_EPOCH":"857","EPHEMERIS_TYPE":"0","OBJECT_TYPE":"PAYLOAD","MEAN_MOTION":"15.14315892","MEAN_MOTION_DOT":"0.00013822","COUNTRY_CODE":"US","GP_ID":"233360922","FILE":"3926571","ELEMENT_SET_NO":"999","PERIAPSIS":"522.029","SEMIMAJOR_AXIS":"6901.193","OBJECT_NAME":"STARLINK-30101"},{"EPHEMERIS_TYPE":"0","REV_AT_EPOCH":"130","INCLINATION":"42.9996","REF_FRAME":"TEME","MEAN_ELEMENT_THEORY":"SGP4","SEMIMAJOR_AXIS":"6872.740","OBJECT_NAME":"STARLINK-30111","PERIAPSIS":"493.668","FILE":"3926571","ELEMENT_SET_NO":"999","GP_ID":"233361174","COUNTRY_CODE":"US","MEAN_MOTION_DOT":"-0.00780230","MEAN_MOTION":"15.23729529","OBJECT_TYPE":"PAYLOAD","OBJECT_ID":"2023-056S","APOAPSIS":"495.542","ARG_OF_PERICENTER":"268.6416","NORAD_CAT_ID":"56302","TLE_LINE2":"2 56302  42.9996 282.1043 0001363 268.6416  65.3776 15.23729529  1306","MEAN_ANOMALY":"65.3776","RCS_SIZE":"LARGE","RA_OF_ASC_NODE":"282.1043","CLASSIFICATION_TYPE":"U","LAUNCH_DATE":"2023-04-19","TIME_SYSTEM":"UTC","MEAN_MOTION_DDOT":"0.0000000000000","TLE_LINE1":"1 56302U 23056S   23157.91667824 -.00780230  00000-0 -34350-1 0  9991","PERIOD":"94.505","SITE":"AFETR","ECCENTRICITY":"0.00013630","BSTAR":"-0.03435000000000","CENTER_NAME":"EARTH","EPOCH":"2023-06-06T22:00:00.999936","DECAY_DATE":null},{"CLASSIFICATION_TYPE":"U","LAUNCH_DATE":"2023-04-19","MEAN_MOTION_DDOT":"0.0000000000000","TLE_LINE1":"1 56303U 23056T   23157.91667824 -.00782440  00000-0 -35109-1 0  9990","TIME_SYSTEM":"UTC","PERIOD":"94.544","SITE":"AFETR","ECCENTRICITY":"0.00013620","BSTAR":"-0.03510900000000","CENTER_NAME":"EARTH","EPOCH":"2023-06-06T22:00:00.999936","DECAY_DATE":null,"OBJECT_ID":"2023-056T","ARG_OF_PERICENTER":"272.0667","APOAPSIS":"497.432","TLE_LINE2":"2 56303  42.9998 282.1490 0001362 272.0667  43.4131 15.23101069  1306","NORAD_CAT_ID":"56303","MEAN_ANOMALY":"43.4131","RCS_SIZE":"LARGE","RA_OF_ASC_NODE":"282.1490","OBJECT_NAME":"STARLINK-30097","SEMIMAJOR_AXIS":"6874.630","ELEMENT_SET_NO":"999","FILE":"3926571","PERIAPSIS":"495.559","GP_ID":"233361926","MEAN_MOTION_DOT":"-0.00782440","COUNTRY_CODE":"US","MEAN_MOTION":"15.23101069","OBJECT_TYPE":"PAYLOAD","REV_AT_EPOCH":"130","EPHEMERIS_TYPE":"0","INCLINATION":"42.9998","REF_FRAME":"TEME","MEAN_ELEMENT_THEORY":"SGP4"}];
